CELESTIS-02             
1 25160U 98007D   15226.86507186 -.00000079  00000-0  22284-4 0  9994
2 25160 107.9478 283.1414 0060987  73.1632  21.0546 14.21378882908028
CELESTIS-03             
1 26034U 99070C   15226.84907570  .00004122  00000-0  32824-3 0  9997
2 26034  98.2709 359.7133 0014511 256.3679 103.5928 15.00918645844365
